*******************************************************************************
JPL/HORIZONS           Shoemaker-Levy 9 (D/1993 F2-L)      2023-May-07 20:06:15
Rec #:90002142 (+COV)           Soln.date: -                  n.a. (span: n.a.)
 
IAU76/J2000 helio. ecliptic osc. elements (au, days, deg., period=Julian yrs):
 
  EPOCH=  2449480.5 ! 1994-May-08.0000000 (TDB)    RMSW= n.a.
   EC= .2093610773818528   QR= 5.379631707592801   TP= 2449440.3485368169
   OM= 220.8375140775926   W= 354.9845262803184    IN= 5.863130922736858
   A= 6.804157439882311    MA= 2.229687088766088   ADIST= 8.22868317217182
   PER= 17.748830151291    N= .055531901           ANGMOM= .043876877
   DAN= 5.3832             DDN= 8.22035            L= 215.8481447
   B= -.5116956            MOID= 4.37315989        TP= 1994-Mar-28.8485368169
 
Comet physical (GM= km^3/s^2; RAD= km):
   GM= n.a.                RAD= n.a.
   M1=  n.a.     M2=  n.a.     k1= n.a.    k2= n.a.     PHCOF= n.a.
 
COMET comments 
1: soln ref.= JPL#L49
2: Valid 1992-Jul-15_00:00 to 1994-Jul-19_22:17 UTC ERT
*******************************************************************************

  
  

*******************************************************************************
Ephemeris / WWW_USER Sun May  7 20:06:15 2023 Pasadena, USA      / Horizons
*******************************************************************************
Target body name: Shoemaker-Levy 9 (D/1993 F2-L)  {source: DASTCOM}
Center body name: Jupiter (599)                   {source: jup365_merged}
Center-site name: BODY CENTER
*******************************************************************************
Start time      : A.D. 1994-Jul-10 00:00:00.0000 TDB
Stop  time      : A.D. 1994-Jul-19 22:17:00.0000 TDB
Step-size       : 15 minutes
*******************************************************************************
Center geodetic : 0.0, 0.0, 0.0                   {W-lon(deg),Lat(deg),Alt(km)}
Center cylindric: 0.0, 0.0, 0.0                   {W-lon(deg),Dxy(km),Dz(km)}
Center radii    : 71492.0, 71492.0, 66854.0 km    {Equator_a, b, pole_c}
Small perturbers: Yes                             {source: SB441-N16}
Output units    : KM-S
Calendar mode   : Mixed Julian/Gregorian
Output type     : GEOMETRIC cartesian states
Output format   : 1 (position only)
Reference frame : Ecliptic of J2000.0
*******************************************************************************
Initial IAU76/J2000 heliocentric ecliptic osculating elements (au, days, deg.):
  EPOCH=  2449480.5 ! 1994-May-08.0000000 (TDB)    RMSW= n.a.                  
   EC= .2093610773818528   QR= 5.379631707592801   TP= 2449440.3485368169      
   OM= 220.8375140775926   W= 354.9845262803184    IN= 5.863130922736858       
  Equivalent ICRF heliocentric cartesian coordinates (au, au/d):
   X=-4.163276515617844E+00  Y=-3.122487124394685E+00  Z=-1.369744861123780E+00
  VX= 5.070950784554308E-03 VY=-6.139528242904128E-03 VZ=-1.754578999417901E-03
Comet physical (GM= km^3/s^2; RAD= km):                                        
   GM= n.a.                RAD= n.a.                                           
   M1=  n.a.     M2=  n.a.     k1= n.a.    k2= n.a.     PHCOF= n.a.            
*******************************************************************************
            JDTDB,            Calendar Date (TDB),                      X,                      Y,                      Z,
**************************************************************************************************************************
$$SOE
2449548.916666667, A.D. 1994-Jul-15 10:00:00.0000, -6.675570765731335E+05,  2.494548533390311E+06, -3.448471797601373E+06,
2449548.927083333, A.D. 1994-Jul-15 10:15:00.0000, -6.663215656119585E+05,  2.490272485749852E+06, -3.443557987980283E+06,
2449548.937500000, A.D. 1994-Jul-15 10:30:00.0000, -6.650851871057749E+05,  2.485993259285134E+06, -3.438639736087315E+06,
2449548.947916667, A.D. 1994-Jul-15 10:45:00.0000, -6.638479397065639E+05,  2.481710844682912E+06, -3.433717027792428E+06,
2449548.958333333, A.D. 1994-Jul-15 11:00:00.0000, -6.626098220493793E+05,  2.477425232546779E+06, -3.428789848887982E+06,
2449548.968750000, A.D. 1994-Jul-15 11:15:00.0000, -6.613708327522278E+05,  2.473136413396199E+06, -3.423858185087958E+06,
2449548.979166667, A.D. 1994-Jul-15 11:30:00.0000, -6.601309704138041E+05,  2.468844377667139E+06, -3.418922022027262E+06,
2449548.989583333, A.D. 1994-Jul-15 11:45:00.0000, -6.588902336127758E+05,  2.464549115711070E+06, -3.413981345261026E+06,
2449549.000000000, A.D. 1994-Jul-15 12:00:00.0000, -6.576486209061146E+05,  2.460250617795182E+06, -3.409036140263962E+06,
2449549.010416667, A.D. 1994-Jul-15 12:15:00.0000, -6.564061308281422E+05,  2.455948874102576E+06, -3.404086392429624E+06,
2449549.020833333, A.D. 1994-Jul-15 12:30:00.0000, -6.551627618887424E+05,  2.451643874731808E+06, -3.399132087069958E+06,
2449549.031250000, A.D. 1994-Jul-15 12:45:00.0000, -6.539185125724077E+05,  2.447335609697110E+06, -3.394173209414192E+06,
2449549.041666667, A.D. 1994-Jul-15 13:00:00.0000, -6.526733813370466E+05,  2.443024068928730E+06, -3.389209744608499E+06,
2449549.052083333, A.D. 1994-Jul-15 13:15:00.0000, -6.514273666126728E+05,  2.438709242272385E+06, -3.384241677715173E+06,
2449549.062500000, A.D. 1994-Jul-15 13:30:00.0000, -6.501804667998552E+05,  2.434391119490090E+06, -3.379268993711750E+06,
2449549.072916667, A.D. 1994-Jul-15 13:45:00.0000, -6.489326802686453E+05,  2.430069690259644E+06, -3.374291677490408E+06,
2449549.083333333, A.D. 1994-Jul-15 14:00:00.0000, -6.476840053578615E+05,  2.425744944175914E+06, -3.369309713857241E+06,
2449549.093750000, A.D. 1994-Jul-15 14:15:00.0000, -6.464344403729439E+05,  2.421416870749875E+06, -3.364323087531336E+06,
2449549.104166667, A.D. 1994-Jul-15 14:30:00.0000, -6.451839835859537E+05,  2.417085459410205E+06, -3.359331783144546E+06,
2449549.114583333, A.D. 1994-Jul-15 14:45:00.0000, -6.439326332330704E+05,  2.412750699502150E+06, -3.354335785239738E+06,
2449549.125000000, A.D. 1994-Jul-15 15:00:00.0000, -6.426803875148296E+05,  2.408412580289802E+06, -3.349335078270964E+06,
2449549.135416667, A.D. 1994-Jul-15 15:15:00.0000, -6.414272445939779E+05,  2.404071090954741E+06, -3.344329646602225E+06,
2449549.145833333, A.D. 1994-Jul-15 15:30:00.0000, -6.401732025948763E+05,  2.399726220597589E+06, -3.339319474506746E+06,
2449549.156250000, A.D. 1994-Jul-15 15:45:00.0000, -6.389182596027851E+05,  2.395377958238431E+06, -3.334304546166151E+06,
2449549.166666667, A.D. 1994-Jul-15 16:00:00.0000, -6.376624136621952E+05,  2.391026292816997E+06, -3.329284845669736E+06,
2449549.177083333, A.D. 1994-Jul-15 16:15:00.0000, -6.364056627758741E+05,  2.386671213193574E+06, -3.324260357013426E+06,
2449549.187500000, A.D. 1994-Jul-15 16:30:00.0000, -6.351480049055815E+05,  2.382312708149283E+06, -3.319231064099284E+06,
2449549.197916667, A.D. 1994-Jul-15 16:45:00.0000, -6.338894379683733E+05,  2.377950766386885E+06, -3.314196950734399E+06,
2449549.208333333, A.D. 1994-Jul-15 17:00:00.0000, -6.326299598377943E+05,  2.373585376531637E+06, -3.309158000629953E+06,
2449549.218750000, A.D. 1994-Jul-15 17:15:00.0000, -6.313695683429241E+05,  2.369216527131497E+06, -3.304114197400764E+06,
2449549.229166667, A.D. 1994-Jul-15 17:30:00.0000, -6.301082612668276E+05,  2.364844206658812E+06, -3.299065524564224E+06,
2449549.239583333, A.D. 1994-Jul-15 17:45:00.0000, -6.288460363461971E+05,  2.360468403509181E+06, -3.294011965539034E+06,
2449549.250000000, A.D. 1994-Jul-15 18:00:00.0000, -6.275828912707567E+05,  2.356089106004281E+06, -3.288953503644833E+06,
2449549.260416667, A.D. 1994-Jul-15 18:15:00.0000, -6.263188236825466E+05,  2.351706302391412E+06, -3.283890122101287E+06,
2449549.270833333, A.D. 1994-Jul-15 18:30:00.0000, -6.250538311758041E+05,  2.347319980844427E+06, -3.278821804026704E+06,
2449549.281250000, A.D. 1994-Jul-15 18:45:00.0000, -6.237879112948179E+05,  2.342930129464726E+06, -3.273748532437690E+06,
2449549.291666667, A.D. 1994-Jul-15 19:00:00.0000, -6.225210615361929E+05,  2.338536736282106E+06, -3.268670290247922E+06,
2449549.302083333, A.D. 1994-Jul-15 19:15:00.0000, -6.212532793450356E+05,  2.334139789254826E+06, -3.263587060266974E+06,
2449549.312500000, A.D. 1994-Jul-15 19:30:00.0000, -6.199845621176958E+05,  2.329739276271732E+06, -3.258498825200039E+06,
2449549.322916667, A.D. 1994-Jul-15 19:45:00.0000, -6.187149071995020E+05,  2.325335185151786E+06, -3.253405567646328E+06,
2449549.333333333, A.D. 1994-Jul-15 20:00:00.0000, -6.174443118845224E+05,  2.320927503645545E+06, -3.248307270098506E+06,
2449549.343750000, A.D. 1994-Jul-15 20:15:00.0000, -6.161727734166384E+05,  2.316516219435880E+06, -3.243203914941481E+06,
2449549.354166667, A.D. 1994-Jul-15 20:30:00.0000, -6.149002889875174E+05,  2.312101320138921E+06, -3.238095484451574E+06,
2449549.364583333, A.D. 1994-Jul-15 20:45:00.0000, -6.136268557380438E+05,  2.307682793304295E+06, -3.232981960795365E+06,
2449549.375000000, A.D. 1994-Jul-15 21:00:00.0000, -6.123524707571268E+05,  2.303260626416817E+06, -3.227863326028953E+06,
2449549.385416667, A.D. 1994-Jul-15 21:15:00.0000, -6.110771310824156E+05,  2.298834806896397E+06, -3.222739562096657E+06,
2449549.395833333, A.D. 1994-Jul-15 21:30:00.0000, -6.098008336995840E+05,  2.294405322099423E+06, -3.217610650830085E+06,
2449549.406250000, A.D. 1994-Jul-15 21:45:00.0000, -6.085235755428076E+05,  2.289972159319711E+06, -3.212476573947280E+06,
2449549.416666667, A.D. 1994-Jul-15 22:00:00.0000, -6.072453534950018E+05,  2.285535305788437E+06, -3.207337313051392E+06,
2449549.427083333, A.D. 1994-Jul-15 22:15:00.0000, -6.059661643874645E+05,  2.281094748675620E+06, -3.202192849629795E+06,
2449549.437500000, A.D. 1994-Jul-15 22:30:00.0000, -6.046860050001144E+05,  2.276650475090900E+06, -3.197043165052893E+06,
2449549.447916667, A.D. 1994-Jul-15 22:45:00.0000, -6.034048720625639E+05,  2.272202472083619E+06, -3.191888240573186E+06,
